{
  "norad_id": 57880,
  "name": "STARLINK-30436",
  "history": [
    {
      "epoch": "2026-03-28T06:48:13.000320Z",
      "apogee_km": 483.9502937708412,
      "perigee_km": 482.0566190048785,
      "latitude_deg": -1.9033744451438143e-05,
      "longitude_deg": -107.79303836676021,
      "height_km": 482.87373856473124,
      "semi_major_axis_km": 6861.14045638786,
      "eccentricity": 0.000138,
      "inclination_deg": 43.0014,
      "raan_deg": 179.9673,
      "arg_perigee_deg": 264.3353,
      "mean_anomaly_deg": 95.7341,
      "mean_motion_rev_day": 15.27595242
    },
    {
      "epoch": "2026-03-29T22:02:07.258848Z",
      "apogee_km": 484.1392384609753,
      "perigee_km": 481.9779618469256,
      "latitude_deg": 3.5661105520174847e-06,
      "longitude_deg": 12.886618471908362,
      "height_km": 482.68551900280227,
      "semi_major_axis_km": 6861.19560015395,
      "eccentricity": 0.0001575,
      "inclination_deg": 43.0064,
      "raan_deg": 170.7342,
      "arg_perigee_deg": 278.0135,
      "mean_anomaly_deg": 82.0538,
      "mean_motion_rev_day": 15.27576826
    },
    {
      "epoch": "2026-03-29T22:02:07.259712Z",
      "apogee_km": 484.1395815207543,
      "perigee_km": 481.97761878714664,
      "latitude_deg": 7.4568811876918135e-06,
      "longitude_deg": 12.886619010410314,
      "height_km": 482.68547118536446,
      "semi_major_axis_km": 6861.19560015395,
      "eccentricity": 0.00015755,
      "inclination_deg": 43.0064,
      "raan_deg": 170.7342,
      "arg_perigee_deg": 278.0135,
      "mean_anomaly_deg": 82.0538,
      "mean_motion_rev_day": 15.27576826
    }
  ]
}